[{"OBJECT_NAME":"STARLINK-3210","OBJECT_ID":"2021-115AH","EPOCH":"2026-03-09T12:52:13.484352","MEAN_MOTION":15.08824357,"ECCENTRICITY":0.00012881,"INCLINATION":53.2171,"RA_OF_ASC_NODE":149.855,"ARG_OF_PERICENTER":89.9257,"MEAN_ANOMALY":270.1883,"EPHEMERIS_TYPE":0,"CLASSIFICATION_TYPE":"U","NORAD_CAT_ID":49755,"ELEMENT_SET_NO":999,"REV_AT_EPOCH":23551,"BSTAR":-0.0001427929,"MEAN_MOTION_DOT":-2.559e-5,"MEAN_MOTION_DDOT":0},{"OBJECT_NAME":"H-2A R\/B","OBJECT_ID":"2025-141B","EPOCH":"2026-03-09T20:50:08.593728","MEAN_MOTION":14.90469893,"ECCENTRICITY":0.00923902,"INCLINATION":98.076,"RA_OF_ASC_NODE":17.3096,"ARG_OF_PERICENTER":151.0716,"MEAN_ANOMALY":209.5668,"EPHEMERIS_TYPE":0,"CLASSIFICATION_TYPE":"U","NORAD_CAT_ID":64695,"ELEMENT_SET_NO":999,"REV_AT_EPOCH":3783,"BSTAR":0.00033350933,"MEAN_MOTION_DOT":3.464e-5,"MEAN_MOTION_DDOT":0}]
